[{"OBJECT_NAME":"EXO-0","OBJECT_ID":"2023-174DK","EPOCH":"2026-03-09T17:03:04.419648","MEAN_MOTION":15.32821991,"ECCENTRICITY":0.00098779,"INCLINATION":97.3864,"RA_OF_ASC_NODE":148.9039,"ARG_OF_PERICENTER":157.1125,"MEAN_ANOMALY":203.0559,"EPHEMERIS_TYPE":0,"CLASSIFICATION_TYPE":"U","NORAD_CAT_ID":59175,"ELEMENT_SET_NO":999,"REV_AT_EPOCH":12979,"BSTAR":0.00036716083,"MEAN_MOTION_DOT":0.00011582,"MEAN_MOTION_DDOT":0},{"OBJECT_NAME":"STARLINK-32688","OBJECT_ID":"2024-229B","EPOCH":"2026-03-09T21:43:43.904064","MEAN_MOTION":15.27587362,"ECCENTRICITY":0.00021729,"INCLINATION":43.0005,"RA_OF_ASC_NODE":269.5579,"ARG_OF_PERICENTER":250.8853,"MEAN_ANOMALY":109.1764,"EPHEMERIS_TYPE":0,"CLASSIFICATION_TYPE":"U","NORAD_CAT_ID":62193,"ELEMENT_SET_NO":999,"REV_AT_EPOCH":7059,"BSTAR":0.0011159597,"MEAN_MOTION_DOT":0.00030582,"MEAN_MOTION_DDOT":0}]
